NORAD_CAT_ID,OBJECT_NAME,OBJECT_TYPE,EPOCH,MEAN_MOTION,ECCENTRICITY,INCLINATION,RA_OF_ASC_NODE,ARG_OF_PERICENTER,MEAN_ANOMALY,BSTAR,MEAN_MOTION_DOT,MEAN_MOTION_DDOT,TLE_LINE0,TLE_LINE1,TLE_LINE2,SEMIMAJOR_AXIS,PERIOD,APOGEE,PERIGEE,DECAYED
53976.0,STARLINK-5134,PAYLOAD,2024-05-24 14:01:26,15.08851558,0.0001842,53.216,260.6362,61.6979,298.4199,0.00039754,6.046e-05,0.0,0 STARLINK-5134,1 53976U 22125N   24145.58433214  .00006046  00000-0  39754-3 0  9995,2 53976  53.2160 260.6362 0001842  61.6979 298.4199 15.08851558 90857,6917.845,95.437,540.984,538.436,0.0
53976.0,STARLINK-5134,PAYLOAD,2024-05-25 13:52:13,15.08834069,0.0001336,53.2162,256.1761,82.9301,277.1843,-2.1503e-05,-6.3e-06,0.0,0 STARLINK-5134,1 53976U 22125N   24146.57793851 -.00000630  00000-0 -21503-4 0  9990,2 53976  53.2162 256.1761 0001336  82.9301 277.1843 15.08834069 91078,6917.899,95.438,540.688,538.839,0.0
53976.0,STARLINK-5134,PAYLOAD,2024-05-26 13:43:01,15.08842616,0.0001177,53.2167,251.7157,99.5773,260.5352,0.00063947,9.905e-05,0.0,0 STARLINK-5134,1 53976U 22125N   24147.57154364  .00009905  00000-0  63947-3 0  9990,2 53976  53.2167 251.7157 0001177  99.5773 260.5352 15.08842616 91150,6917.872,95.437,540.552,538.923,0.0
53976.0,STARLINK-5134,PAYLOAD,2024-05-27 13:33:48,15.08846132,0.0001221,53.2164,247.2537,103.5826,256.5302,0.00034914,5.274e-05,0.0,0 STARLINK-5134,1 53976U 22125N   24148.56514260  .00005274  00000-0  34914-3 0  9992,2 53976  53.2164 247.2537 0001221 103.5826 256.5302 15.08846132 91375,6917.862,95.437,540.571,538.882,0.0
53976.0,STARLINK-5134,PAYLOAD,2024-05-28 13:24:35,15.08841656,0.0001357,53.2165,242.7916,100.7745,259.34,5.8867e-05,6.49e-06,0.0,0 STARLINK-5134,1 53976U 22125N   24149.55874210  .00000649  00000-0  58867-4 0  9991,2 53976  53.2165 242.7916 0001357 100.7745 259.3400 15.08841656 91529,6917.875,95.437,540.679,538.802,0.0
53976.0,STARLINK-5134,PAYLOAD,2024-05-29 13:15:22,15.08844041,0.000125,53.2162,238.3332,87.7961,272.3175,9.5294e-05,1.229e-05,0.0,0 STARLINK-5134,1 53976U 22125N   24150.55234125  .00001229  00000-0  95294-4 0  9998,2 53976  53.2162 238.3332 0001250  87.7961 272.3175 15.08844041 91609,6917.868,95.437,540.598,538.868,0.0
53976.0,STARLINK-5134,PAYLOAD,2024-05-29 16:26:08,15.08845118,0.0001269,53.2161,237.7355,90.8661,269.2476,0.00011624,1.563e-05,0.0,0 STARLINK-5134,1 53976U 22125N   24150.68482012  .00001563  00000-0  11624-3 0  9997,2 53976  53.2161 237.7355 0001269  90.8661 269.2476 15.08845118 91692,6917.865,95.437,540.608,538.852,0.0
53976.0,STARLINK-5134,PAYLOAD,2024-05-30 13:06:10,15.08831717,0.0001553,53.2168,233.8715,74.7442,285.3722,0.00072089,0.00011201,0.0,0 STARLINK-5134,1 53976U 22125N   24151.54594934  .00011201  00000-0  72089-3 0  9992,2 53976  53.2168 233.8715 0001553  74.7442 285.3722 15.08831717 91828,6917.906,95.438,540.845,538.696,0.0
53976.0,STARLINK-5134,PAYLOAD,2024-05-30 14:41:32,15.08851419,0.000133,53.2164,233.5723,87.4867,272.6277,0.0001602,2.263e-05,0.0,0 STARLINK-5134,1 53976U 22125N   24151.61217709  .00002263  00000-0  16020-3 0  9993,2 53976  53.2164 233.5723 0001330  87.4867 272.6277 15.08851419 91763,6917.845,95.437,540.631,538.79,0.0
53976.0,STARLINK-5134,PAYLOAD,2024-05-31 11:21:33,15.08844511,0.0001446,53.2164,229.7046,87.0562,273.0596,8.1179e-05,1.004e-05,0.0,0 STARLINK-5134,1 53976U 22125N   24152.47329995  .00001004  00000-0  81179-4 0  9999,2 53976  53.2164 229.7046 0001446  87.0562 273.0596 15.08844511 91960,6917.867,95.437,540.732,538.731,0.0
53976.0,STARLINK-5134,PAYLOAD,2024-05-31 14:32:18,15.08848485,0.0001218,53.2156,229.1083,102.8993,257.2135,0.00011623,1.563e-05,0.0,0 STARLINK-5134,1 53976U 22125N   24152.60577450  .00001563  00000-0  11623-3 0  9991,2 53976  53.2156 229.1083 0001218 102.8993 257.2135 15.08848485 91919,6917.854,95.437,540.562,538.877,0.0
53976.0,STARLINK-5134,PAYLOAD,2024-05-31 22:29:14,15.08843325,0.0001182,53.2152,227.6246,88.8515,271.2613,6.3517e-05,7.23e-06,0.0,0 STARLINK-5134,1 53976U 22125N   24152.93697777  .00000723  00000-0  63517-4 0  9999,2 53976  53.2152 227.6246 0001182  88.8515 271.2613 15.08843325 91962,6917.87,95.437,540.553,538.918,0.0
53976.0,STARLINK-5134,PAYLOAD,2024-06-01 14:23:06,15.08844249,0.0001353,53.2162,224.6494,95.9227,264.1919,5.3028e-05,5.56e-06,0.0,0 STARLINK-5134,1 53976U 22125N   24153.59937952  .00000556  00000-0  53028-4 0  9994,2 53976  53.2162 224.6494 0001353  95.9227 264.1919 15.08844249 92062,6917.867,95.437,540.668,538.796,0.0
53976.0,STARLINK-5134,PAYLOAD,2024-06-02 11:03:07,15.08838193,0.0001361,53.2164,220.7842,93.67,266.4448,7.2172e-05,8.61e-06,0.0,0 STARLINK-5134,1 53976U 22125N   24154.46050435  .00000861  00000-0  72172-4 0  9993,2 53976  53.2164 220.7842 0001361  93.6700 266.4448 15.08838193 92263,6917.886,95.438,540.692,538.809,0.0
53976.0,STARLINK-5134,PAYLOAD,2024-06-02 14:13:53,15.08841517,0.0001392,53.2171,220.19,97.3694,262.7456,5.9196e-05,6.54e-06,0.0,0 STARLINK-5134,1 53976U 22125N   24154.59298325  .00000654  00000-0  59196-4 0  9990,2 53976  53.2171 220.1900 0001392  97.3694 262.7456 15.08841517 92214,6917.876,95.437,540.704,538.778,0.0
53976.0,STARLINK-5134,PAYLOAD,2024-06-03 10:53:54,15.08842255,0.0001375,53.2158,216.325,93.9072,266.2078,0.00010312,1.354e-05,0.0,0 STARLINK-5134,1 53976U 22125N   24155.45410349  .00001354  00000-0  10312-3 0  9992,2 53976  53.2158 216.3250 0001375  93.9072 266.2078 15.08842255 92340,6917.873,95.437,540.69,538.787,0.0
53976.0,STARLINK-5134,PAYLOAD,2024-06-04 04:23:09,15.08836203,0.000131,53.2159,213.0548,92.6969,267.4173,8.5665e-05,1.076e-05,0.0,0 STARLINK-5134,1 53976U 22125N   24156.18274975  .00001076  00000-0  85665-4 0  9991,2 53976  53.2159 213.0548 0001310  92.6969 267.4173 15.08836203 92520,6917.892,95.438,540.663,538.851,0.0
53976.0,STARLINK-5134,PAYLOAD,2024-06-04 10:44:42,15.08835609,0.0001261,53.2155,211.8657,92.5403,267.5733,0.00018211,2.611e-05,0.0,0 STARLINK-5134,1 53976U 22125N   24156.44770894  .00002611  00000-0  18211-3 0  9999,2 53976  53.2155 211.8657 0001261  92.5403 267.5733 15.08835609 92498,6917.894,95.438,540.631,538.886,0.0
53976.0,STARLINK-5134,PAYLOAD,2024-06-04 20:17:00,15.08842581,0.0001269,53.2152,210.0812,88.8784,271.2354,8.575e-05,1.077e-05,0.0,0 STARLINK-5134,1 53976U 22125N   24156.84514613  .00001077  00000-0  85750-4 0  9996,2 53976  53.2152 210.0812 0001269  88.8784 271.2354 15.08842581 92552,6917.872,95.437,540.615,538.86,0.0
53976.0,STARLINK-5134,PAYLOAD,2024-06-05 10:35:28,15.08843932,0.0001292,53.2155,207.4068,94.7465,265.3675,0.00011104,1.48e-05,0.0,0 STARLINK-5134,1 53976U 22125N   24157.44130468  .00001480  00000-0  11104-3 0  9994,2 53976  53.2155 207.4068 0001292  94.7465 265.3675 15.08843932 92715,6917.868,95.437,540.627,538.84,0.0
53976.0,STARLINK-5134,PAYLOAD,2024-06-05 20:07:47,15.08844801,0.0001222,53.2157,205.6223,90.5976,269.5156,7.2409e-05,8.65e-06,0.0,0 STARLINK-5134,1 53976U 22125N   24157.83874408  .00000865  00000-0  72409-4 0  9998,2 53976  53.2157 205.6223 0001222  90.5976 269.5156 15.08844801 92709,6917.866,95.437,540.576,538.885,0.0
53976.0,STARLINK-5134,PAYLOAD,2024-06-06 10:26:16,15.08833583,0.0001634,53.2174,202.9431,87.1856,272.9323,3.3853e-05,2.51e-06,0.0,0 STARLINK-5134,1 53976U 22125N   24158.43491579  .00000251  00000-0  33853-4 0  9998,2 53976  53.2174 202.9431 0001634  87.1856 272.9323 15.08833583 92861,6917.9,95.438,540.895,538.635,0.0
53976.0,STARLINK-5134,PAYLOAD,2024-06-07 02:20:07,15.08840876,0.0001413,53.2164,199.9714,89.4346,270.6808,6.1203e-05,6.86e-06,0.0,0 STARLINK-5134,1 53976U 22125N   24159.09731122  .00000686  00000-0  61203-4 0  9994,2 53976  53.2164 199.9714 0001413  89.4346 270.6808 15.08840876 92960,6917.878,95.437,540.72,538.765,0.0
53976.0,STARLINK-5134,PAYLOAD,2024-06-07 08:41:40,15.08844721,0.0001655,53.2179,198.7823,89.1527,270.9655,6.4944e-05,7.46e-06,0.0,0 STARLINK-5134,1 53976U 22125N   24159.36226946  .00000746  00000-0  64944-4 0  9999,2 53976  53.2179 198.7823 0001655  89.1527 270.9655 15.08844721 92933,6917.866,95.437,540.876,538.586,0.0
53976.0,STARLINK-5134,PAYLOAD,2024-06-07 19:49:21,15.08852041,0.0001406,53.2161,196.7003,85.633,274.4822,5.6941e-05,6.19e-06,0.0,0 STARLINK-5134,1 53976U 22125N   24159.82594294  .00000619  00000-0  56941-4 0  9991,2 53976  53.2161 196.7003 0001406  85.6330 274.4822 15.08852041 93074,6917.844,95.437,540.681,538.736,0.0
53976.0,STARLINK-5134,PAYLOAD,2024-06-08 02:10:54,15.08843727,0.0001457,53.2147,195.5112,82.4983,277.6174,0.00023435,3.444e-05,0.0,0 STARLINK-5134,1 53976U 22125N   24160.09090800  .00003444  00000-0  23435-3 0  9996,2 53976  53.2147 195.5112 0001457  82.4983 277.6174 15.08843727 93112,6917.869,95.437,540.742,538.726,0.0
53976.0,STARLINK-5134,PAYLOAD,2024-06-08 10:07:49,15.088502,0.0001415,53.2145,194.0238,86.5183,273.5971,0.00025203,3.726e-05,0.0,0 STARLINK-5134,1 53976U 22125N   24160.42210450  .00003726  00000-0  25203-3 0  9996,2 53976  53.2145 194.0238 0001415  86.5183 273.5971 15.08850200 93095,6917.849,95.437,540.693,538.735,0.0
53976.0,STARLINK-5134,PAYLOAD,2024-06-08 19:40:09,15.08841898,0.0001474,53.2147,192.2389,81.3873,278.7286,0.00011024,1.467e-05,0.0,0 STARLINK-5134,1 53976U 22125N   24160.81954864  .00001467  00000-0  11024-3 0  9999,2 53976  53.2147 192.2389 0001474  81.3873 278.7286 15.08841898 93154,6917.875,95.437,540.759,538.72,0.0
53976.0,STARLINK-5134,PAYLOAD,2024-06-09 02:01:41,15.0884051,0.0001526,53.2148,191.0486,88.2643,271.8524,-1.2334e-05,-4.84e-06,0.0,0 STARLINK-5134,1 53976U 22125N   24161.08450958 -.00000484  00000-0 -12334-4 0  9990,2 53976  53.2148 191.0486 0001526  88.2643 271.8524 15.08840510 93260,6917.879,95.438,540.799,538.688,0.0
53976.0,STARLINK-5134,PAYLOAD,2024-06-09 08:23:14,15.08835404,0.0001552,53.2151,189.8601,83.6269,276.49,-5.1482e-05,-1.107e-05,0.0,0 STARLINK-5134,1 53976U 22125N   24161.34947312 -.00001107  00000-0 -51482-4 0  9994,2 53976  53.2151 189.8601 0001552  83.6269 276.4900 15.08835404 93232,6917.894,95.438,540.833,538.686,0.0
